NORAD_CAT_ID,OBJECT_NAME,OBJECT_TYPE,EPOCH,MEAN_MOTION,ECCENTRICITY,INCLINATION,RA_OF_ASC_NODE,ARG_OF_PERICENTER,MEAN_ANOMALY,BSTAR,MEAN_MOTION_DOT,MEAN_MOTION_DDOT,TLE_LINE0,TLE_LINE1,TLE_LINE2,SEMIMAJOR_AXIS,PERIOD,APOGEE,PERIGEE,DECAYED
55661.0,STARLINK-5475,PAYLOAD,2023-10-18 11:15:28,14.98386408,0.0002621,70.0039,206.1912,283.351,76.7356,-0.00098216,-0.00011809,0.0,0 STARLINK-5475,1 55661U 23021AK  23291.46908430 -.00011809  00000-0 -98216-3 0  9992,2 55661  70.0039 206.1912 0002621 283.3510  76.7356 14.98386408 38183,6950.018,96.103,573.705,570.062,0.0
55661.0,STARLINK-5475,PAYLOAD,2023-10-19 04:52:58,14.98330027,0.0002422,70.0028,204.341,278.5266,81.5619,-4.8838e-05,-6.76e-06,0.0,0 STARLINK-5475,1 55661U 23021AK  23292.20345679 -.00000676  00000-0 -48838-4 0  9991,2 55661  70.0028 204.3410 0002422 278.5266  81.5619 14.98330027 38291,6950.193,96.107,573.741,570.374,0.0
55661.0,STARLINK-5475,PAYLOAD,2023-10-19 22:30:27,14.98322644,0.0002367,70.0025,202.4902,278.1931,81.8959,8.6926e-05,9.44e-06,0.0,0 STARLINK-5475,1 55661U 23021AK  23292.93781523  .00000944  00000-0  86926-4 0  9999,2 55661  70.0025 202.4902 0002367 278.1931  81.8959 14.98322644 38708,6950.216,96.107,573.726,570.436,0.0
55661.0,STARLINK-5475,PAYLOAD,2023-10-20 04:54:58,14.98337053,0.0002503,70.0019,201.8163,268.719,91.3682,-3.9198e-05,-5.61e-06,0.0,0 STARLINK-5475,1 55661U 23021AK  23293.20484907 -.00000561  00000-0 -39198-4 0  9992,2 55661  70.0019 201.8163 0002503 268.7190  91.3682 14.98337053 38447,6950.171,96.107,573.776,570.296,0.0
55661.0,STARLINK-5475,PAYLOAD,2023-10-20 17:44:04,14.98320104,0.0001912,70.0033,200.4708,260.0203,100.074,-3.2432e-05,-4.8e-06,0.0,0 STARLINK-5475,1 55661U 23021AK  23293.73894450 -.00000480  00000-0 -32432-4 0  9992,2 55661  70.0033 200.4708 0001912 260.0203 100.0740 14.98320104 38527,6950.223,96.108,573.417,570.76,0.0
55661.0,STARLINK-5475,PAYLOAD,2023-10-20 20:56:21,14.9831675,0.0002194,70.0025,200.1336,256.4786,103.6128,-6.1832e-05,-8.3e-06,0.0,0 STARLINK-5475,1 55661U 23021AK  23293.87246578 -.00000830  00000-0 -61832-4 0  9994,2 55661  70.0025 200.1336 0002194 256.4786 103.6128 14.98316750 38846,6950.234,96.108,573.624,570.574,0.0
55661.0,STARLINK-5475,PAYLOAD,2023-10-21 11:21:32,14.98333615,0.0003018,69.9995,198.6191,274.17,85.9114,-4.0515e-05,-5.76e-06,0.0,0 STARLINK-5475,1 55661U 23021AK  23294.47329707 -.00000576  00000-0 -40515-4 0  9999,2 55661  69.9995 198.6191 0003018 274.1700  85.9114 14.98333615 38631,6950.182,96.107,574.144,569.949,0.0
55661.0,STARLINK-5475,PAYLOAD,2023-10-21 19:22:12,14.98343238,0.0002862,70.0007,197.7766,267.0283,93.0548,7.0325e-05,7.46e-06,0.0,0 STARLINK-5475,1 55661U 23021AK  23294.80708842  .00000746  00000-0  70325-4 0  9996,2 55661  70.0007 197.7766 0002862 267.0283  93.0548 14.98343238 38687,6950.152,96.106,574.006,570.028,0.0
55661.0,STARLINK-5475,PAYLOAD,2023-10-21 22:34:28,14.98351083,0.0002843,70.0005,197.4397,265.7951,94.2883,-4.0268e-05,-5.74e-06,0.0,0 STARLINK-5475,1 55661U 23021AK  23294.94060714 -.00000574  00000-0 -40268-4 0  9994,2 55661  70.0005 197.4397 0002843 265.7951  94.2883 14.98351083 39007,6950.128,96.106,573.969,570.017,0.0
55661.0,STARLINK-5475,PAYLOAD,2023-10-22 03:22:51,14.98359761,0.0002826,70.0005,196.936,267.5405,92.5431,1.2388e-05,5.5e-07,0.0,0 STARLINK-5475,1 55661U 23021AK  23295.14087731  .00000055  00000-0  12388-4 0  9999,2 55661  70.0005 196.9360 0002826 267.5405  92.5431 14.98359761 38736,6950.101,96.105,573.93,570.002,0.0
55661.0,STARLINK-5475,PAYLOAD,2023-10-22 11:23:33,14.98333149,0.000188,70.0044,196.0952,292.4784,67.6176,6.1348e-05,6.39e-06,0.0,0 STARLINK-5475,1 55661U 23021AK  23295.47469380  .00000639  00000-0  61348-4 0  9997,2 55661  70.0044 196.0952 0001880 292.4784  67.6176 14.98333149 38789,6950.183,96.107,573.355,570.742,0.0
55661.0,STARLINK-5475,PAYLOAD,2023-10-22 19:24:14,14.98314761,0.0003079,69.9998,195.2514,263.8357,96.2452,-4.7148e-05,-6.55e-06,0.0,0 STARLINK-5475,1 55661U 23021AK  23295.80850606 -.00000655  00000-0 -47148-4 0  9991,2 55661  69.9998 195.2514 0003079 263.8357  96.2452 14.98314761 38839,6950.24,96.108,574.245,569.965,0.0
55661.0,STARLINK-5475,PAYLOAD,2023-10-22 22:36:31,14.98314482,0.000276,70.0007,194.9153,269.2445,90.8398,-1.1401e-05,-2.29e-06,0.0,0 STARLINK-5475,1 55661U 23021AK  23295.94202668 -.00000229  00000-0 -11401-4 0  9995,2 55661  70.0007 194.9153 0002760 269.2445  90.8398 14.98314482 39157,6950.241,96.108,574.024,570.188,0.0
55661.0,STARLINK-5475,PAYLOAD,2023-10-23 19:26:15,14.9833513,0.0002941,69.9995,192.7256,272.329,87.7533,-0.00014545,-1.828e-05,0.0,0 STARLINK-5475,1 55661U 23021AK  23296.80989999 -.00001828  00000-0 -14545-3 0  9997,2 55661  69.9995 192.7256 0002941 272.3290  87.7533 14.98335130 38983,6950.177,96.107,574.086,569.998,0.0
55661.0,STARLINK-5475,PAYLOAD,2023-10-23 22:38:31,14.98328378,0.0002474,70.0011,192.3914,270.904,89.1835,4.083e-05,3.94e-06,0.0,0 STARLINK-5475,1 55661U 23021AK  23296.94342052  .00000394  00000-0  40830-4 0  9997,2 55661  70.0011 192.3914 0002474 270.9040  89.1835 14.98328378 39304,6950.198,96.107,573.782,570.343,0.0
55661.0,STARLINK-5475,PAYLOAD,2023-10-24 03:26:55,14.98340393,0.0002663,70.0011,191.8874,266.1904,93.8951,-8.8923e-05,-1.154e-05,0.0,0 STARLINK-5475,1 55661U 23021AK  23297.14369358 -.00001154  00000-0 -88923-4 0  9990,2 55661  70.0011 191.8874 0002663 266.1904  93.8951 14.98340393 39031,6950.161,96.106,573.877,570.175,0.0
55661.0,STARLINK-5475,PAYLOAD,2023-10-24 09:51:27,14.98350106,0.0002811,70.001,191.213,270.738,89.3457,-0.00026069,-3.204e-05,0.0,0 STARLINK-5475,1 55661U 23021AK  23297.41072951 -.00003204  00000-0 -26069-3 0  9990,2 55661  70.0010 191.2130 0002811 270.7380  89.3457 14.98350106 39374,6950.131,96.106,573.949,570.042,0.0
55661.0,STARLINK-5475,PAYLOAD,2023-10-25 03:28:54,14.9834246,0.0002874,70.0006,189.3613,276.567,83.5162,0.00032405,3.777e-05,0.0,0 STARLINK-5475,1 55661U 23021AK  23298.14507913  .00003777  00000-0  32405-3 0  9996,2 55661  70.0006 189.3613 0002874 276.5670  83.5162 14.98342460 39180,6950.154,96.106,574.017,570.022,0.0
55661.0,STARLINK-5475,PAYLOAD,2023-10-25 22:42:30,14.98356545,0.0002746,70.0007,187.3412,261.6699,98.4149,0.00022699,2.618e-05,0.0,0 STARLINK-5475,1 55661U 23021AK  23298.94619212  .00002618  00000-0  22699-3 0  9997,2 55661  70.0007 187.3412 0002746 261.6699  98.4149 14.98356545 39606,6950.111,96.105,573.884,570.067,0.0
55661.0,STARLINK-5475,PAYLOAD,2023-10-26 03:30:56,14.98338228,0.0003237,70.0005,186.8364,265.2649,94.814,-2.2415e-05,-3.61e-06,0.0,0 STARLINK-5475,1 55661U 23021AK  23299.14648743 -.00000361  00000-0 -22415-4 0  9993,2 55661  70.0005 186.8364 0003237 265.2649  94.8140 14.98338228 39334,6950.167,96.106,574.282,569.783,0.0
55661.0,STARLINK-5475,PAYLOAD,2023-10-26 22:44:33,14.98335137,0.0002529,70.0007,184.8167,254.9225,105.1655,-4.2437e-05,-5.99e-06,0.0,0 STARLINK-5475,1 55661U 23021AK  23299.94761032 -.00000599  00000-0 -42437-4 0  9997,2 55661  70.0007 184.8167 0002529 254.9225 105.1655 14.98335137 39752,6950.177,96.107,573.8,570.284,0.0
55661.0,STARLINK-5475,PAYLOAD,2023-10-27 09:57:29,14.98339698,0.0002841,70.0011,183.6386,272.0743,88.0091,-0.00013851,-1.746e-05,0.0,0 STARLINK-5475,1 55661U 23021AK  23300.41492716 -.00001746  00000-0 -13851-3 0  9994,2 55661  70.0011 183.6386 0002841 272.0743  88.0091 14.98339698 39524,6950.163,96.106,574.002,570.053,0.0
55661.0,STARLINK-5475,PAYLOAD,2023-10-27 21:10:26,14.98323697,0.0002649,70.0005,182.4602,263.59,96.4957,4.8103e-05,4.81e-06,0.0,0 STARLINK-5475,1 55661U 23021AK  23300.88225319  .00000481  00000-0  48103-4 0  9990,2 55661  70.0005 182.4602 0002649 263.5900  96.4957 14.98323697 39594,6950.212,96.107,573.918,570.236,0.0
55661.0,STARLINK-5475,PAYLOAD,2023-10-27 22:46:34,14.98322927,0.0002667,70.0004,182.2918,263.416,96.6696,1.8247e-05,1.25e-06,0.0,0 STARLINK-5475,1 55661U 23021AK  23300.94901475  .00000125  00000-0  18247-4 0  9992,2 55661  70.0004 182.2918 0002667 263.4160  96.6696 14.98322927 39900,6950.215,96.107,573.933,570.226,0.0
55661.0,STARLINK-5475,PAYLOAD,2023-10-28 09:59:31,14.98324956,0.0002779,70.0001,181.1142,270.6812,89.4029,-1.6937e-05,-2.95e-06,0.0,0 STARLINK-5475,1 55661U 23021AK  23301.41633686 -.00000295  00000-0 -16937-4 0  9995,2 55661  70.0001 181.1142 0002779 270.6812  89.4029 14.98324956 39973,6950.208,96.107,574.005,570.142,0.0
55661.0,STARLINK-5475,PAYLOAD,2023-10-28 22:48:35,14.98324222,0.0002707,69.9998,179.768,260.7059,99.3794,0.00015999,1.816e-05,0.0,0 STARLINK-5475,1 55661U 23021AK  23301.95041230  .00001816  00000-0  15999-3 0  9996,2 55661  69.9998 179.7680 0002707 260.7059  99.3794 14.98324222 40055,6950.211,96.107,573.957,570.194,0.0
55661.0,STARLINK-5475,PAYLOAD,2023-10-29 02:00:51,14.98335131,0.0002818,69.9999,179.4312,266.3263,93.7574,1.5156e-05,8.8e-07,0.0,0 STARLINK-5475,1 55661U 23021AK  23302.08392973  .00000088  00000-0  15156-4 0  9990,2 55661  69.9999 179.4312 0002818 266.3263  93.7574 14.98335131 39779,6950.177,96.107,574.001,570.083,0.0
55661.0,STARLINK-5475,PAYLOAD,2023-10-29 21:14:28,14.98327657,0.0002811,69.9996,177.4114,268.8528,91.2309,5.3092e-05,5.41e-06,0.0,0 STARLINK-5475,1 55661U 23021AK  23302.88505306  .00000541  00000-0  53092-4 0  9999,2 55661  69.9996 177.4114 0002811 268.8528  91.2309 14.98327657 39894,6950.2,96.107,574.019,570.111,0.0
55661.0,STARLINK-5475,PAYLOAD,2023-10-29 22:50:36,14.98330667,0.0002831,69.9996,177.2435,268.7059,91.3776,7.4908e-05,8.01e-06,0.0,0 STARLINK-5475,1 55661U 23021AK  23302.95181054  .00000801  00000-0  74908-4 0  9995,2 55661  69.9996 177.2435 0002831 268.7059  91.3776 14.98330667 40209,6950.191,96.107,574.023,570.088,0.0
55661.0,STARLINK-5475,PAYLOAD,2023-10-30 19:40:22,14.98318799,0.0002742,70.0,175.0553,270.1453,89.9392,9.4797e-05,1.038e-05,0.0,0 STARLINK-5475,1 55661U 23021AK  23303.81969926  .00001038  00000-0  94797-4 0  9994,2 55661  70.0000 175.0553 0002742 270.1453  89.9392 14.98318799 40031,6950.228,96.108,573.998,570.187,0.0
